[
    {
        "Altitude(m)": 559781.6763468278,
        "Argument of Periapsis(deg)": 0.026491964442854003,
        "Eccentricity": 0.0,
        "Inclination(deg)": 53.0,
        "Latitude(deg)": 52.62561591048048,
        "Longitude(deg)": -137.03434140471492,
        "Mean Anomaly(deg)": 96.73007147031034,
        "RAAN(deg)": 224.96057347411207,
        "Satellite Name": "Starlink Shell 1 993",
        "Satellite Number": 993,
        "Semi-Major Axis(m)": 6931778.249405717,
        "Time(s)": 760
    },
    {
        "Altitude(m)": 559758.721381868,
        "Argument of Periapsis(deg)": 0.02684054292236524,
        "Eccentricity": 0.0,
        "Inclination(deg)": 53.0,
        "Latitude(deg)": 52.52442967129383,
        "Longitude(deg)": -136.06049176058696,
        "Mean Anomaly(deg)": 97.35690267386707,
        "RAAN(deg)": 224.9600547040346,
        "Satellite Name": "Starlink Shell 1 993",
        "Satellite Number": 993,
        "Semi-Major Axis(m)": 6931778.249405717,
        "Time(s)": 770
    },
    {
        "Altitude(m)": 559733.7827984837,
        "Argument of Periapsis(deg)": 0.027189121401876473,
        "Eccentricity": 0.0,
        "Inclination(deg)": 53.0,
        "Latitude(deg)": 52.41458047612936,
        "Longitude(deg)": -135.09149170983414,
        "Mean Anomaly(deg)": 97.98373387742379,
        "RAAN(deg)": 224.95953593395714,
        "Satellite Name": "Starlink Shell 1 993",
        "Satellite Number": 993,
        "Semi-Major Axis(m)": 6931778.249405717,
        "Time(s)": 780
    },
    {
        "Altitude(m)": 559706.8756322474,
        "Argument of Periapsis(deg)": 0.02753769988138771,
        "Eccentricity": 0.0,
        "Inclination(deg)": 53.0,
        "Latitude(deg)": 52.29614483297752,
        "Longitude(deg)": -134.1276905158601,
        "Mean Anomaly(deg)": 98.61056508098054,
        "RAAN(deg)": 224.95901716387965,
        "Satellite Name": "Starlink Shell 1 993",
        "Satellite Number": 993,
        "Semi-Major Axis(m)": 6931778.249405717,
        "Time(s)": 790
    },
    {
        "Altitude(m)": 559678.0161106044,
        "Argument of Periapsis(deg)": 0.02788627836089895,
        "Eccentricity": 0.0,
        "Inclination(deg)": 53.0,
        "Latitude(deg)": 52.16920424224132,
        "Longitude(deg)": -133.16942403039837,
        "Mean Anomaly(deg)": 99.23739628453721,
        "RAAN(deg)": 224.9584983938022,
        "Satellite Name": "Starlink Shell 1 993",
        "Satellite Number": 993,
        "Semi-Major Axis(m)": 6931778.249405717,
        "Time(s)": 800
    },
    {
        "Altitude(m)": 559647.2216449623,
        "Argument of Periapsis(deg)": 0.02823485684041019,
        "Eccentricity": 0.0,
        "Inclination(deg)": 53.0,
        "Latitude(deg)": 52.0338449366889,
        "Longitude(deg)": -132.21701357339845,
        "Mean Anomaly(deg)": 99.86422748809392,
        "RAAN(deg)": 224.9579796237247,
        "Satellite Name": "Starlink Shell 1 993",
        "Satellite Number": 993,
        "Semi-Major Axis(m)": 6931778.249405717,
        "Time(s)": 810
    },
    {
        "Altitude(m)": 559614.5108221812,
        "Argument of Periapsis(deg)": 0.028583435319921423,
        "Eccentricity": 0.0,
        "Inclination(deg)": 53.0,
        "Latitude(deg)": 51.890157612416786,
        "Longitude(deg)": -131.27076489924357,
        "Mean Anomaly(deg)": 100.49105869165062,
        "RAAN(deg)": 224.95746085364723,
        "Satellite Name": "Starlink Shell 1 993",
        "Satellite Number": 993,
        "Semi-Major Axis(m)": 6931778.249405717,
        "Time(s)": 820
    },
    {
        "Altitude(m)": 559579.9033954833,
        "Argument of Periapsis(deg)": 0.028932013799432665,
        "Eccentricity": 0.0,
        "Inclination(deg)": 53.0,
        "Latitude(deg)": 51.73823715279485,
        "Longitude(deg)": -130.3309687636947,
        "Mean Anomaly(deg)": 101.11788989520733,
        "RAAN(deg)": 224.95694208356974,
        "Satellite Name": "Starlink Shell 1 993",
        "Satellite Number": 993,
        "Semi-Major Axis(m)": 6931778.249405717,
        "Time(s)": 830
    },
    {
        "Altitude(m)": 559543.4202748202,
        "Argument of Periapsis(deg)": 0.029280592278943897,
        "Eccentricity": 0.0,
        "Inclination(deg)": 53.0,
        "Latitude(deg)": 51.57818234712531,
        "Longitude(deg)": -129.39790006466862,
        "Mean Anomaly(deg)": 101.7447210987641,
        "RAAN(deg)": 224.95642331349228,
        "Satellite Name": "Starlink Shell 1 993",
        "Satellite Number": 993,
        "Semi-Major Axis(m)": 6931778.249405717,
        "Time(s)": 840
    },
    {
        "Altitude(m)": 559505.0835166324,
        "Argument of Periapsis(deg)": 0.029629170758455132,
        "Eccentricity": 0.0,
        "Inclination(deg)": 53.0,
        "Latitude(deg)": 51.41009560577839,
        "Longitude(deg)": -128.47181706836307,
        "Mean Anomaly(deg)": 102.37155230232075,
        "RAAN(deg)": 224.9559045434148,
        "Satellite Name": "Starlink Shell 1 993",
        "Satellite Number": 993,
        "Semi-Major Axis(m)": 6931778.249405717,
        "Time(s)": 850
    },
    {
        "Altitude(m)": 559464.9163130615,
        "Argument of Periapsis(deg)": 0.02997774923796637,
        "Eccentricity": 0.0,
        "Inclination(deg)": 53.0,
        "Latitude(deg)": 51.23408267350174,
        "Longitude(deg)": -127.55296239952897,
        "Mean Anomaly(deg)": 102.99838350587754,
        "RAAN(deg)": 224.95538577333733,
        "Satellite Name": "Starlink Shell 1 993",
        "Satellite Number": 993,
        "Semi-Major Axis(m)": 6931778.249405717,
        "Time(s)": 860
    },
    {
        "Altitude(m)": 559422.9429806242,
        "Argument of Periapsis(deg)": 0.030326327717477602,
        "Eccentricity": 0.0,
        "Inclination(deg)": 53.0,
        "Latitude(deg)": 51.050252342519386,
        "Longitude(deg)": -126.6415615906452,
        "Mean Anomaly(deg)": 103.6252147094342,
        "RAAN(deg)": 224.9548670032599,
        "Satellite Name": "Starlink Shell 1 993",
        "Satellite Number": 993,
        "Semi-Major Axis(m)": 6931778.249405717,
        "Time(s)": 870
    },
    {
        "Altitude(m)": 559379.1889482689,
        "Argument of Periapsis(deg)": 0.030674906196988847,
        "Eccentricity": 0.0,
        "Inclination(deg)": 53.0,
        "Latitude(deg)": 50.858716166961045,
        "Longitude(deg)": -125.73782422948734,
        "Mean Anomaly(deg)": 104.25204591299095,
        "RAAN(deg)": 224.9543482331824,
        "Satellite Name": "Starlink Shell 1 993",
        "Satellite Number": 993,
        "Semi-Major Axis(m)": 6931778.249405717,
        "Time(s)": 880
    },
    {
        "Altitude(m)": 559333.6807449564,
        "Argument of Periapsis(deg)": 0.031023484676500086,
        "Eccentricity": 0.0,
        "Inclination(deg)": 53.0,
        "Latitude(deg)": 50.65958818005665,
        "Longitude(deg)": -124.8419434987686,
        "Mean Anomaly(deg)": 104.87887711654766,
        "RAAN(deg)": 224.95382946310494,
        "Satellite Name": "Starlink Shell 1 993",
        "Satellite Number": 993,
        "Semi-Major Axis(m)": 6931778.249405717,
        "Time(s)": 890
    },
    {
        "Altitude(m)": 559286.4459866275,
        "Argument of Periapsis(deg)": 0.03137206315601132,
        "Eccentricity": 0.0,
        "Inclination(deg)": 53.0,
        "Latitude(deg)": 50.45298461543056,
        "Longitude(deg)": -123.95409578448844,
        "Mean Anomaly(deg)": 105.50570832010433,
        "RAAN(deg)": 224.95331069302748,
        "Satellite Name": "Starlink Shell 1 993",
        "Satellite Number": 993,
        "Semi-Major Axis(m)": 6931778.249405717,
        "Time(s)": 900
    },
    {
        "Altitude(m)": 559237.5133626844,
        "Argument of Periapsis(deg)": 0.03172064163552255,
        "Eccentricity": 0.0,
        "Inclination(deg)": 53.0,
        "Latitude(deg)": 50.23902363372055,
        "Longitude(deg)": -123.07444186120506,
        "Mean Anomaly(deg)": 106.13253952366108,
        "RAAN(deg)": 224.95279192294998,
        "Satellite Name": "Starlink Shell 1 993",
        "Satellite Number": 993,
        "Semi-Major Axis(m)": 6931778.249405717,
        "Time(s)": 910
    },
    {
        "Altitude(m)": 559186.9126218987,
        "Argument of Periapsis(deg)": 0.0320692201150338,
        "Eccentricity": 0.0,
        "Inclination(deg)": 53.0,
        "Latitude(deg)": 50.01782505562279,
        "Longitude(deg)": -122.2031266235686,
        "Mean Anomaly(deg)": 106.75937072721774,
        "RAAN(deg)": 224.9522731528725,
        "Satellite Name": "Starlink Shell 1 993",
        "Satellite Number": 993,
        "Semi-Major Axis(m)": 6931778.249405717,
        "Time(s)": 920
    },
    {
        "Altitude(m)": 559134.6745578093,
        "Argument of Periapsis(deg)": 0.032417798594545036,
        "Eccentricity": 0.0,
        "Inclination(deg)": 53.0,
        "Latitude(deg)": 49.789510102352025,
        "Longitude(deg)": -121.340278871895,
        "Mean Anomaly(deg)": 107.38620193077453,
        "RAAN(deg)": 224.95175438279503,
        "Satellite Name": "Starlink Shell 1 993",
        "Satellite Number": 993,
        "Semi-Major Axis(m)": 6931778.249405717,
        "Time(s)": 930
    },
    {
        "Altitude(m)": 559080.8309935979,
        "Argument of Periapsis(deg)": 0.03276637707405627,
        "Eccentricity": 0.0,
        "Inclination(deg)": 53.0,
        "Latitude(deg)": 49.55420114438645,
        "Longitude(deg)": -120.48601265945335,
        "Mean Anomaly(deg)": 108.01303313433122,
        "RAAN(deg)": 224.95123561271754,
        "Satellite Name": "Starlink Shell 1 993",
        "Satellite Number": 993,
        "Semi-Major Axis(m)": 6931778.249405717,
        "Time(s)": 940
    }
]